[{"OBJECT_NAME":"SHIJIAN-6 02B (SJ-6 02B)","OBJECT_ID":"2006-046B","EPOCH":"2026-03-09T23:09:06.940224","MEAN_MOTION":15.01001333,"ECCENTRICITY":0.00140021,"INCLINATION":97.7065,"RA_OF_ASC_NODE":98.697,"ARG_OF_PERICENTER":42.7506,"MEAN_ANOMALY":317.4805,"EPHEMERIS_TYPE":0,"CLASSIFICATION_TYPE":"U","NORAD_CAT_ID":29506,"ELEMENT_SET_NO":999,"REV_AT_EPOCH":5585,"BSTAR":0.00024683398,"MEAN_MOTION_DOT":3.096e-5,"MEAN_MOTION_DDOT":0},{"OBJECT_NAME":"STARLINK-32516","OBJECT_ID":"2024-225P","EPOCH":"2026-03-09T16:45:08.871840","MEAN_MOTION":14.98339257,"ECCENTRICITY":0.00034447,"INCLINATION":70.0022,"RA_OF_ASC_NODE":164.5399,"ARG_OF_PERICENTER":273.3746,"MEAN_ANOMALY":86.7019,"EPHEMERIS_TYPE":0,"CLASSIFICATION_TYPE":"U","NORAD_CAT_ID":62176,"ELEMENT_SET_NO":999,"REV_AT_EPOCH":6987,"BSTAR":0.00054834516,"MEAN_MOTION_DOT":6.458e-5,"MEAN_MOTION_DDOT":0}]
